[
    {
        "Altitude(m)": 611965.1782143955,
        "Argument of Periapsis(deg)": 0.0,
        "Eccentricity": 0.0,
        "Inclination(deg)": 60.0,
        "Latitude(deg)": 59.14013991636222,
        "Longitude(deg)": -36.030325856014876,
        "Mean Anomaly(deg)": -278.1818,
        "RAAN(deg)": 350.0,
        "Satellite Name": "Test1 1545",
        "Satellite Number": 1545,
        "Semi-Major Axis(m)": 6980739.136638005,
        "Time(s)": 0
    },
    {
        "Altitude(m)": 611995.8043008453,
        "Argument of Periapsis(deg)": 0.00010418945913296404,
        "Eccentricity": 0.0,
        "Inclination(deg)": 60.0,
        "Latitude(deg)": 59.28324161137739,
        "Longitude(deg)": -34.89696518595091,
        "Mean Anomaly(deg)": -277.56169385453813,
        "RAAN(deg)": 349.99957995086027,
        "Satellite Name": "Test1 1545",
        "Satellite Number": 1545,
        "Semi-Major Axis(m)": 6980739.136638005,
        "Time(s)": 10
    }
]